SatCatId,ObjectName,LaunchYear,OrbitalPeriod,LaunchMass,StatusCode,Status,UcsData,OrbitClass,LaunchSiteCountry,Owner,UseType,Purpose,LaunchVehicleClass,TLE1,TLE2
22836,RADUGA 30,1993,1436.27,-1.0,-,Inactive,0,GEO,Kazakhstan,Russia/USSR,Unknown,Unknown,Unknown,1 22836U 93062A   22298.16632924 -.00000076  00000+0  00000+0 0  9999,2 22836  14.6072 357.2296 0000654  14.3635 154.5310  1.00259933 32651
22871,INTELSAT 701 (IS-701),1993,1449.81,-1.0,-,Inactive,0,GEO,French Guiana,INTELSAT,Unknown,Unknown,Unknown,1 22871U 93066A   22297.58043233 -.00000058  00000+0  00000+0 0  9996,2 22871   8.0266  56.7111 0003933  62.4055 136.3219  0.99323440105875
22877,NAVSTAR 35 (USA 96),1993,763.76,-1.0,-,Inactive,0,MEO,USA,USA,Unknown,Unknown,Unknown,1 22877U 93068A   22297.55326788 -.00000080  00000+0  00000+0 0  9995,2 22877  55.4506  23.7251 0009566 110.7328 248.7847  1.88540254211349
22880,GORIZONT 28,1993,1445.08,-1.0,-,Inactive,0,GEO,Kazakhstan,Russia/USSR,Unknown,Unknown,Unknown,1 22880U 93069A   22297.85863550 -.00000139  00000+0  00000+0 0  9991,2 22880  14.6597 357.9492 0034994 134.9079 303.1197  0.99648071105863
22888,COSMOS 2266,1993,104.73,-1.0,UNK,Inactive,0,LEO,Russia,Russia/USSR,Unknown,Unknown,Unknown,1 22888U 93070A   22298.43878073  .00000069  00000+0  56864-4 0  9997,2 22888  82.9525 346.0244 0046893 301.6438  69.1530 13.74978567451145
22907,GORIZONT 29,1993,1437.68,-1.0,-,Inactive,0,GEO,Kazakhstan,Russia/USSR,Unknown,Unknown,Unknown,1 22907U 93072A   22297.93208087 -.00000200  00000+0  00000+0 0  9991,2 22907  14.5704 357.4051 0008723 346.2995   2.4830  1.00161105105835
22911,SOLIDARIDAD 1,1993,1436.17,-1.0,-,Inactive,0,GEO,French Guiana,Mexico,Unknown,Unknown,Unknown,1 22911U 93073A   22298.27370778 -.00000084  00000+0  00000+0 0  9992,2 22911  13.9710  12.2653 0004982 178.5881 193.6321  1.00266785104520
22912,METEOSAT-6 (MOP-3),1993,1454.76,-1.0,-,Inactive,0,GEO,French Guiana,EUMETSAT,Unknown,Unknown,Unknown,1 22912U 93073B   22298.07215281 -.00000235  00000+0  00000+0 0  9996,2 22912  14.1565  10.7236 0006724 175.8199 193.8708  0.98985394103845
22915,USA 97,1993,1461.4,-1.0,-,Inactive,0,GEO,USA,USA,Unknown,Unknown,Unknown,1 22915U 93074A   22298.09599487 -.00000176  00000+0  00000+0 0  9999,2 22915  12.5597  24.2711 0007024  17.0511 342.9504  0.98535330 11774
22921,NATO 4B,1993,1461.66,-1.0,-,Inactive,0,GEO,USA,NATO,Unknown,Unknown,Unknown,1 22921U 93076A   22298.21157977 -.00000100  00000+0  00000+0 0  9993,2 22921  12.6969   8.6152 0003904  83.2102 310.9905  0.98517539105500
22927,TELSTAR 401,1993,1436.3,-1.0,-,Inactive,0,GEO,USA,USA,Unknown,Unknown,Unknown,1 22927U 93077A   22298.22727043 -.00000100  00000+0  00000+0 0  9998,2 22927  14.7931   1.1508 0012294 121.3056 247.6994  1.00257355105230
22930,DIRECTV 1 (DBS 1),1993,1454.71,-1.0,-,Inactive,0,GEO,French Guiana,USA,Unknown,Unknown,Unknown,1 22930U 93078A   22298.51565442 -.00000273  00000+0  00000+0 0  9999,2 22930   9.8573  43.1036 0010887 148.1413 178.9529  0.98988812112843
22931,THAICOM 1,1993,1451.86,-1.0,-,Inactive,0,GEO,French Guiana,Thailand,Unknown,Unknown,Unknown,1 22931U 93078B   22298.46327671  .00000029  00000+0  00000+0 0  9992,2 22931   9.6209  43.9603 0005201 148.2931 215.7698  0.99183343 32975
22949,MOLNIYA 1-87,1993,709.88,-1.0,UNK,Inactive,0,MEO,Russia,Russia/USSR,Unknown,Unknown,Unknown,1 22949U 93079A   22297.70160868  .00000534  00000+0  00000+0 0  9992,2 22949  64.0888  77.4063 6897455 283.5763  13.4266  2.02846174 77557
22963,GALS 1,1994,1437.19,-1.0,-,Inactive,0,GEO,Kazakhstan,Russia/USSR,Unknown,Unknown,Unknown,1 22963U 94002A   22297.85654325 -.00000228  00000+0  00000+0 0  9998,2 22963  14.6720   4.0586 0012245 173.5006 254.8639  1.00194908105367
22969,METEOR 3-6,1994,109.34,-1.0,UNK,Inactive,0,LEO,Russia,Russia/USSR,Unknown,Unknown,Unknown,1 22969U 94003A   22298.28210118 -.00000118  00000+0 -33726-3 0  9995,2 22969  82.5590 306.8036 0013935 296.9485  63.0213 13.17008747382049
22970,SL-14 R/B,1994,109.34,-1.0,-,Inactive,0,LEO,Russia,Russia/USSR,Unknown,Unknown,Unknown,1 22970U 94003B   22298.30645980 -.00000013  00000+0 -65767-4 0  9994,2 22970  82.5589 306.5988 0015017 294.5468  76.8051 13.16974499381800
22971,TUBSAT B,1994,109.33,-1.0,UNK,Inactive,0,LEO,Russia,Germany,Unknown,Unknown,Unknown,1 22971U 94003C   22298.32123275  .00000166  00000+0  39907-3 0  9998,2 22971  82.5586 305.5130 0015072 290.7010  84.4259 13.17094485381879
22979,VEP,1994,638.31,-1.0,UNK,Inactive,0,MEO,Japan,Japan,Unknown,Unknown,Unknown,1 22979U 94007B   22298.04062181  .00000008  00000+0  10494-3 0  9992,2 22979  28.4841 122.7052 7237823 267.7955  15.8047  2.25594986236220
22981,RADUGA-1 3,1994,1436.74,-1.0,-,Inactive,0,GEO,Kazakhstan,Russia/USSR,Unknown,Unknown,Unknown,1 22981U 94008A   22298.16090969 -.00000234  00000+0  00000+0 0  9994,2 22981  14.6877 358.3780 0004317 120.4005  63.3448  1.00226763105133
22988,USA 99 (MILSTAR-1 1),1994,1436.09,4536.0,+,Active,1,GEO,USA,USA,Military,Communications,Titan,1 22988U 94009A   22297.29979771 -.00000180  00000+0  00000+0 0  9992,2 22988  15.5543  41.7497 0003383 184.1936 184.7202  1.00271944 19614
22996,SJ-4,1994,311.34,-1.0,UNK,Inactive,0,MEO,PRC,China,Unknown,Unknown,Unknown,1 22996U 94010A   22298.13199616  .00000564  00000+0  19969-3 0  9992,2 22996  29.0121 334.8896 5594436 203.9279 114.4779  4.62516457385698
22999,COSMOS 2268,1994,114.18,-1.0,UNK,Inactive,0,LEO,Russia,Russia/USSR,Unknown,Unknown,Unknown,1 22999U 94011A   22298.45907729  .00000017  00000+0  37126-4 0  9992,2 22999  82.5719 108.0808 0009652 335.9810  52.0585 12.61174672321010
23000,COSMOS 2269,1994,114.11,-1.0,UNK,Inactive,0,LEO,Russia,Russia/USSR,Unknown,Unknown,Unknown,1 23000U 94011B   22298.39469406  .00000005  00000+0 -32206-4 0  9996,2 23000  82.5644  90.8410 0006453 330.3833  57.2988 12.61893313321821
23001,COSMOS 2270,1994,114.03,-1.0,UNK,Inactive,0,LEO,Russia,Russia/USSR,Unknown,Unknown,Unknown,1 23001U 94011C   22298.40540299  .00000001  00000+0 -51037-4 0  9998,2 23001  82.5708  84.4507 0006655 323.6003  63.9344 12.62877177322672
23002,COSMOS 2271,1994,113.97,-1.0,UNK,Inactive,0,LEO,Russia,Russia/USSR,Unknown,Unknown,Unknown,1 23002U 94011D   22298.38548875  .00000010  00000+0 -37886-5 0  9991,2 23002  82.5651  69.7308 0006545 340.6363  19.4479 12.63467444323423
23003,COSMOS 2272,1994,113.89,-1.0,UNK,Inactive,0,LEO,Russia,Russia/USSR,Unknown,Unknown,Unknown,1 23003U 94011E   22298.27485720  .00000010  00000+0 -13895-5 0  9993,2 23003  82.5722  64.5406 0010815 304.1674  55.8392 12.64345365324236
23004,COSMOS 2273,1994,114.03,-1.0,UNK,Inactive,0,LEO,Russia,Russia/USSR,Unknown,Unknown,Unknown,1 23004U 94011F   22298.42441816  .00000002  00000+0 -47876-4 0  9995,2 23004  82.5719  85.4890 0004657 338.5876  35.2183 12.62862266322773
23010,RADUGA 31,1994,1435.13,-1.0,-,Inactive,0,GEO,Kazakhstan,Russia/USSR,Unknown,Unknown,Unknown,1 23010U 94012A   22297.84242314 -.00000072  00000+0  00000+0 0  9990,2 23010  14.6579 358.3787 0005915 103.6041 304.9321  1.00339339105005
23016,GALAXY 1R (G-1R),1994,1451.29,-1.0,-,Inactive,0,GEO,USA,USA,Unknown,Unknown,Unknown,1 23016U 94013A   22298.27731587 -.00000165  00000+0  00000+0 0  9993,2 23016  11.2898  31.1444 0001161  78.8658 317.0560  0.99221230 32983
23027,NAVSTAR 36 (USA 100),1994,771.4,-1.0,-,Inactive,0,MEO,USA,USA,Unknown,Unknown,Unknown,1 23027U 94016A   22297.27946449 -.00000035  00000+0  00000+0 0  9998,2 23027  54.3285 321.3975 0031822 194.8108 160.4698  1.86674088208350
23043,COSMOS 2276 [GLONASS],1994,675.74,-1.0,-,Inactive,0,MEO,Kazakhstan,Russia/USSR,Unknown,Unknown,Unknown,1 23043U 94021A   22298.12032830 -.00000035  00000+0  00000+0 0  9997,2 23043  64.7215 347.6061 0018871 186.4273 240.4007  2.13098977221875
23044,COSMOS 2277 [GLONASS],1994,675.73,-1.0,-,Inactive,0,MEO,Kazakhstan,Russia/USSR,Unknown,Unknown,Unknown,1 23044U 94021B   22296.40205953 -.00000037  00000+0  00000+0 0  9997,2 23044  64.7121 347.5444 0054590 213.6610 142.0859  2.13104016222002
23045,COSMOS 2275 [GLONASS],1994,675.73,-1.0,-,Inactive,0,MEO,Kazakhstan,Russia/USSR,Unknown,Unknown,Unknown,1 23045U 94021C   22298.49556958 -.00000035  00000+0  00000+0 0  9991,2 23045  64.7009 347.3765 0026099  36.0253 320.2358  2.13101653221866
23051,GOES 8,1994,1455.97,-1.0,-,Inactive,0,GEO,USA,USA,Unknown,Unknown,Unknown,1 23051U 94022A   22297.84895839  .00000007  00000+0  00000+0 0  9999,2 23051  13.2875  23.2719 0003816  54.9394 346.0008  0.98902700110968
23087,COSMOS 2278,1994,101.85,-1.0,UNK,Inactive,0,LEO,Kazakhstan,Russia/USSR,Unknown,Unknown,Unknown,1 23087U 94023A   22298.29344018  .00000153  00000+0  10567-3 0  9992,2 23087  71.0527 230.3456 0007086 116.1508 244.0344 14.13883100470720
23092,COSMOS 2279,1994,104.62,-1.0,UNK,Inactive,0,LEO,Russia,Russia/USSR,Unknown,Unknown,Unknown,1 23092U 94024A   22298.26617265  .00000050  00000+0  35465-4 0  9994,2 23092  82.9454 122.3797 0035604  16.4608 343.7696 13.76437706430957
23105,STEP 2,1994,97.48,-1.0,UNK,Inactive,0,LEO,USA,USA,Unknown,Unknown,Unknown,1 23105U 94029A   22298.49848017  .00001906  00000+0  24349-3 0  9999,2 23105  81.9432  77.2661 0103189 265.2272  93.7149 14.77255286522567
23108,GORIZONT 30,1994,1436.18,-1.0,-,Inactive,0,GEO,Kazakhstan,Russia/USSR,Unknown,Unknown,Unknown,1 23108U 94030A   22298.50666715 -.00000255  00000+0  00000+0 0  9990,2 23108  14.5848 358.3038 0002607 173.3139 189.3395  1.00265823104121
23124,INTELSAT 702 (IS-702),1994,1455.42,-1.0,-,Inactive,0,GEO,French Guiana,INTELSAT,Unknown,Unknown,Unknown,1 23124U 94034A   22298.54992735 -.00000206  00000+0  00000+0 0  9996,2 23124   8.3004  54.9887 0012658  26.7131 274.2319  0.98939933117710
23125,STRV 1A,1994,439.62,-1.0,UNK,Inactive,0,MEO,French Guiana,UK,Unknown,Unknown,Unknown,1 23125U 94034B   22297.52436657  .00002103  00000+0  57860-3 0  9997,2 23125   7.6239  46.3835 6521829 288.5939  14.4180  3.27557584289450
